[{"OBJECT_NAME":"STARLINK-35049","OBJECT_ID":"2025-194L","EPOCH":"2026-03-09T12:44:06.889056","MEAN_MOTION":15.05663466,"ECCENTRICITY":0.0002185,"INCLINATION":97.6019,"RA_OF_ASC_NODE":284.2328,"ARG_OF_PERICENTER":82.4381,"MEAN_ANOMALY":277.7094,"EPHEMERIS_TYPE":0,"CLASSIFICATION_TYPE":"U","NORAD_CAT_ID":65444,"ELEMENT_SET_NO":999,"REV_AT_EPOCH":2962,"BSTAR":0.00012815303,"MEAN_MOTION_DOT":1.789e-5,"MEAN_MOTION_DDOT":0},{"OBJECT_NAME":"PEGASUS DEB","OBJECT_ID":"1994-029AEX","EPOCH":"2026-03-09T10:21:12.559968","MEAN_MOTION":14.69785081,"ECCENTRICITY":0.01957394,"INCLINATION":81.9702,"RA_OF_ASC_NODE":117.9188,"ARG_OF_PERICENTER":51.5385,"MEAN_ANOMALY":310.3202,"EPHEMERIS_TYPE":0,"CLASSIFICATION_TYPE":"U","NORAD_CAT_ID":39312,"ELEMENT_SET_NO":999,"REV_AT_EPOCH":67444,"BSTAR":0.0006881266,"MEAN_MOTION_DOT":5.551e-5,"MEAN_MOTION_DDOT":0}]
